[{"OBJECT_NAME":"STARLINK-32409","OBJECT_ID":"2024-187T","EPOCH":"2025-07-29T17:08:41.879040","MEAN_MOTION":15.39621386,"ECCENTRICITY":0.0001274,"INCLINATION":53.1624,"RA_OF_ASC_NODE":14.4384,"ARG_OF_PERICENTER":82.8092,"MEAN_ANOMALY":277.3058,"EPHEMERIS_TYPE":0,"CLASSIFICATION_TYPE":"U","NORAD_CAT_ID":61591,"ELEMENT_SET_NO":999,"REV_AT_EPOCH":4503,"BSTAR":4.6286e-5,"MEAN_MOTION_DOT":1.452e-5,"MEAN_MOTION_DDOT":0},{"OBJECT_NAME":"STARLINK-32422","OBJECT_ID":"2024-187U","EPOCH":"2025-07-29T17:55:22.376064","MEAN_MOTION":15.39617945,"ECCENTRICITY":0.0001033,"INCLINATION":53.1606,"RA_OF_ASC_NODE":13.9238,"ARG_OF_PERICENTER":78.1988,"MEAN_ANOMALY":281.9133,"EPHEMERIS_TYPE":0,"CLASSIFICATION_TYPE":"U","NORAD_CAT_ID":61592,"ELEMENT_SET_NO":999,"REV_AT_EPOCH":4504,"BSTAR":4.6395e-5,"MEAN_MOTION_DOT":1.457e-5,"MEAN_MOTION_DDOT":0},{"OBJECT_NAME":"STARLINK-32397","OBJECT_ID":"2024-187V","EPOCH":"2025-07-29T18:54:19.531584","MEAN_MOTION":15.30189596,"ECCENTRICITY":0.0001183,"INCLINATION":53.1608,"RA_OF_ASC_NODE":18.4495,"ARG_OF_PERICENTER":92.2546,"MEAN_ANOMALY":267.859,"EPHEMERIS_TYPE":0,"CLASSIFICATION_TYPE":"U","NORAD_CAT_ID":61593,"ELEMENT_SET_NO":999,"REV_AT_EPOCH":4498,"BSTAR":4.0033e-5,"MEAN_MOTION_DOT":8.26e-6,"MEAN_MOTION_DDOT":0},{"OBJECT_NAME":"STARLINK-32302","OBJECT_ID":"2024-191A","EPOCH":"2025-07-30T08:06:40.770432","MEAN_MOTION":15.2757772,"ECCENTRICITY":7.18e-5,"INCLINATION":43.001,"RA_OF_ASC_NODE":329.9614,"ARG_OF_PERICENTER":224.8279,"MEAN_ANOMALY":135.2515,"EPHEMERIS_TYPE":0,"CLASSIFICATION_TYPE":"U","NORAD_CAT_ID":61621,"ELEMENT_SET_NO":999,"REV_AT_EPOCH":4429,"BSTAR":5.4069e-5,"MEAN_MOTION_DOT":1.226e-5,"MEAN_MOTION_DDOT":0},{"OBJECT_NAME":"STARLINK-32364","OBJECT_ID":"2024-191B","EPOCH":"2025-07-30T08:21:29.498976","MEAN_MOTION":15.27558758,"ECCENTRICITY":0.0001336,"INCLINATION":42.9992,"RA_OF_ASC_NODE":330.0395,"ARG_OF_PERICENTER":280.8046,"MEAN_ANOMALY":79.2655,"EPHEMERIS_TYPE":0,"CLASSIFICATION_TYPE":"U","NORAD_CAT_ID":61622,"ELEMENT_SET_NO":999,"REV_AT_EPOCH":4423,"BSTAR":4.2309e-5,"MEAN_MOTION_DOT":9.02e-6,"MEAN_MOTION_DDOT":0},{"OBJECT_NAME":"STARLINK-32331","OBJECT_ID":"2024-191C","EPOCH":"2025-07-30T08:39:17.658720","MEAN_MOTION":15.27563376,"ECCENTRICITY":0.0001118,"INCLINATION":43.0003,"RA_OF_ASC_NODE":333.6055,"ARG_OF_PERICENTER":277.9309,"MEAN_ANOMALY":82.1416,"EPHEMERIS_TYPE":0,"CLASSIFICATION_TYPE":"U","NORAD_CAT_ID":61623,"ELEMENT_SET_NO":999,"REV_AT_EPOCH":4414,"BSTAR":8.3274e-5,"MEAN_MOTION_DOT":2.029e-5,"MEAN_MOTION_DDOT":0},{"OBJECT_NAME":"STARLINK-32398","OBJECT_ID":"2024-191D","EPOCH":"2025-07-30T08:38:08.059200","MEAN_MOTION":15.27569125,"ECCENTRICITY":5.7e-5,"INCLINATION":42.9963,"RA_OF_ASC_NODE":330.1286,"ARG_OF_PERICENTER":311.5263,"MEAN_ANOMALY":48.554,"EPHEMERIS_TYPE":0,"CLASSIFICATION_TYPE":"U","NORAD_CAT_ID":61624,"ELEMENT_SET_NO":999,"REV_AT_EPOCH":4423,"BSTAR":4.1181e-5,"MEAN_MOTION_DOT":8.71e-6,"MEAN_MOTION_DDOT":0},{"OBJECT_NAME":"STARLINK-32365","OBJECT_ID":"2024-191E","EPOCH":"2025-07-30T08:10:22.468512","MEAN_MOTION":15.27597173,"ECCENTRICITY":0.0001704,"INCLINATION":43.0006,"RA_OF_ASC_NODE":329.9813,"ARG_OF_PERICENTER":288.9598,"MEAN_ANOMALY":71.1069,"EPHEMERIS_TYPE":0,"CLASSIFICATION_TYPE":"U","NORAD_CAT_ID":61625,"ELEMENT_SET_NO":999,"REV_AT_EPOCH":4428,"BSTAR":-4.6278e-5,"MEAN_MOTION_DOT":-1.536e-5,"MEAN_MOTION_DDOT":0},{"OBJECT_NAME":"STARLINK-32333","OBJECT_ID":"2024-191F","EPOCH":"2025-07-30T08:55:56.710560","MEAN_MOTION":15.27571353,"ECCENTRICITY":5.26e-5,"INCLINATION":43.0022,"RA_OF_ASC_NODE":333.6893,"ARG_OF_PERICENTER":298.2154,"MEAN_ANOMALY":61.8644,"EPHEMERIS_TYPE":0,"CLASSIFICATION_TYPE":"U","NORAD_CAT_ID":61626,"ELEMENT_SET_NO":999,"REV_AT_EPOCH":4419,"BSTAR":8.0345e-5,"MEAN_MOTION_DOT":1.949e-5,"MEAN_MOTION_DDOT":0},{"OBJECT_NAME":"STARLINK-32399","OBJECT_ID":"2024-191G","EPOCH":"2025-07-29T19:07:03.088992","MEAN_MOTION":15.27591156,"ECCENTRICITY":0.0001113,"INCLINATION":42.9998,"RA_OF_ASC_NODE":325.853,"ARG_OF_PERICENTER":280.1202,"MEAN_ANOMALY":79.9524,"EPHEMERIS_TYPE":0,"CLASSIFICATION_TYPE":"U","NORAD_CAT_ID":61627,"ELEMENT_SET_NO":999,"REV_AT_EPOCH":4353,"BSTAR":1.3153e-5,"MEAN_MOTION_DOT":1.0e-6,"MEAN_MOTION_DDOT":0},{"OBJECT_NAME":"STARLINK-32421","OBJECT_ID":"2024-191H","EPOCH":"2025-07-30T00:56:36.520512","MEAN_MOTION":15.27570468,"ECCENTRICITY":1.01e-5,"INCLINATION":43.0005,"RA_OF_ASC_NODE":332.0228,"ARG_OF_PERICENTER":11.0962,"MEAN_ANOMALY":348.9892,"EPHEMERIS_TYPE":0,"CLASSIFICATION_TYPE":"U","NORAD_CAT_ID":61628,"ELEMENT_SET_NO":999,"REV_AT_EPOCH":4419,"BSTAR":5.3758e-5,"MEAN_MOTION_DOT":1.218e-5,"MEAN_MOTION_DDOT":0},{"OBJECT_NAME":"STARLINK-32403","OBJECT_ID":"2024-191J","EPOCH":"2025-07-30T00:41:48.583392","MEAN_MOTION":15.27565201,"ECCENTRICITY":6.64e-5,"INCLINATION":42.9976,"RA_OF_ASC_NODE":331.9429,"ARG_OF_PERICENTER":281.7617,"MEAN_ANOMALY":78.3161,"EPHEMERIS_TYPE":0,"CLASSIFICATION_TYPE":"U","NORAD_CAT_ID":61629,"ELEMENT_SET_NO":999,"REV_AT_EPOCH":4419,"BSTAR":0.00010794,"MEAN_MOTION_DOT":2.708e-5,"MEAN_MOTION_DDOT":0},{"OBJECT_NAME":"STARLINK-32390","OBJECT_ID":"2024-191K","EPOCH":"2025-07-30T07:24:19.952064","MEAN_MOTION":15.27569283,"ECCENTRICITY":3.82e-5,"INCLINATION":43,"RA_OF_ASC_NODE":330.6051,"ARG_OF_PERICENTER":315.1757,"MEAN_ANOMALY":44.9064,"EPHEMERIS_TYPE":0,"CLASSIFICATION_TYPE":"U","NORAD_CAT_ID":61630,"ELEMENT_SET_NO":999,"REV_AT_EPOCH":4417,"BSTAR":4.3764e-5,"MEAN_MOTION_DOT":9.42e-6,"MEAN_MOTION_DDOT":0},{"OBJECT_NAME":"STARLINK-32348","OBJECT_ID":"2024-191L","EPOCH":"2025-07-30T08:44:50.743680","MEAN_MOTION":15.2757108,"ECCENTRICITY":6.35e-5,"INCLINATION":42.9969,"RA_OF_ASC_NODE":333.6318,"ARG_OF_PERICENTER":312.9038,"MEAN_ANOMALY":47.176,"EPHEMERIS_TYPE":0,"CLASSIFICATION_TYPE":"U","NORAD_CAT_ID":61631,"ELEMENT_SET_NO":999,"REV_AT_EPOCH":4419,"BSTAR":8.0225e-5,"MEAN_MOTION_DOT":1.946e-5,"MEAN_MOTION_DDOT":0},{"OBJECT_NAME":"STARLINK-32455","OBJECT_ID":"2024-191M","EPOCH":"2025-07-30T01:16:16.012704","MEAN_MOTION":15.27574172,"ECCENTRICITY":1.03e-5,"INCLINATION":43.0003,"RA_OF_ASC_NODE":335.5923,"ARG_OF_PERICENTER":272.9239,"MEAN_ANOMALY":87.1601,"EPHEMERIS_TYPE":0,"CLASSIFICATION_TYPE":"U","NORAD_CAT_ID":61632,"ELEMENT_SET_NO":999,"REV_AT_EPOCH":4415,"BSTAR":-6.2609e-6,"MEAN_MOTION_DOT":-4.34e-6,"MEAN_MOTION_DDOT":0},{"OBJECT_NAME":"STARLINK-32396","OBJECT_ID":"2024-191N","EPOCH":"2025-07-30T00:59:36.874464","MEAN_MOTION":15.2758166,"ECCENTRICITY":8.98e-5,"INCLINATION":43.0023,"RA_OF_ASC_NODE":335.5057,"ARG_OF_PERICENTER":254.1916,"MEAN_ANOMALY":105.8837,"EPHEMERIS_TYPE":0,"CLASSIFICATION_TYPE":"U","NORAD_CAT_ID":61633,"ELEMENT_SET_NO":999,"REV_AT_EPOCH":4415,"BSTAR":0.00013359,"MEAN_MOTION_DOT":3.416e-5,"MEAN_MOTION_DDOT":0},{"OBJECT_NAME":"STARLINK-32355","OBJECT_ID":"2024-191P","EPOCH":"2025-07-30T01:19:58.748448","MEAN_MOTION":15.275781,"ECCENTRICITY":0.0001311,"INCLINATION":43.006,"RA_OF_ASC_NODE":335.6151,"ARG_OF_PERICENTER":284.4486,"MEAN_ANOMALY":75.622,"EPHEMERIS_TYPE":0,"CLASSIFICATION_TYPE":"U","NORAD_CAT_ID":61634,"ELEMENT_SET_NO":999,"REV_AT_EPOCH":4414,"BSTAR":-6.5901e-5,"MEAN_MOTION_DOT":-2.075e-5,"MEAN_MOTION_DDOT":0}]
