STARLINK-32409          
1 61591U 24187T   25210.71437360  .00001452  00000+0  46286-4 0  9996
2 61591  53.1624  14.4384 0001274  82.8092 277.3058 15.39621386 45030
STARLINK-32422          
1 61592U 24187U   25210.74678676  .00001457  00000+0  46395-4 0  9993
2 61592  53.1606  13.9238 0001033  78.1988 281.9133 15.39617945 45040
STARLINK-32397          
1 61593U 24187V   25210.78772606  .00000826  00000+0  40033-4 0  9998
2 61593  53.1608  18.4495 0001183  92.2546 267.8590 15.30189596 44980
STARLINK-32302          
1 61621U 24191A   25211.33797188  .00001226  00000+0  54069-4 0  9998
2 61621  43.0010 329.9614 0000718 224.8279 135.2515 15.27577720 44294
STARLINK-32364          
1 61622U 24191B   25211.34825809  .00000902  00000+0  42309-4 0  9996
2 61622  42.9992 330.0395 0001336 280.8046  79.2655 15.27558758 44238
STARLINK-32331          
1 61623U 24191C   25211.36062105  .00002029  00000+0  83274-4 0  9999
2 61623  43.0003 333.6055 0001118 277.9309  82.1416 15.27563376 44143
STARLINK-32398          
1 61624U 24191D   25211.35981550  .00000871  00000+0  41181-4 0  9997
2 61624  42.9963 330.1286 0000570 311.5263  48.5540 15.27569125 44232
STARLINK-32365          
1 61625U 24191E   25211.34053783 -.00001536  00000+0 -46278-4 0  9998
2 61625  43.0006 329.9813 0001704 288.9598  71.1069 15.27597173 44280
STARLINK-32333          
1 61626U 24191F   25211.37218415  .00001949  00000+0  80345-4 0  9996
2 61626  43.0022 333.6893 0000526 298.2154  61.8644 15.27571353 44199
STARLINK-32399          
1 61627U 24191G   25210.79656353  .00000100  00000+0  13153-4 0  9990
2 61627  42.9998 325.8530 0001113 280.1202  79.9524 15.27591156 43535
STARLINK-32421          
1 61628U 24191H   25211.03931158  .00001218  00000+0  53758-4 0  9994
2 61628  43.0005 332.0228 0000101  11.0962 348.9892 15.27570468 44194
STARLINK-32403          
1 61629U 24191J   25211.02903453  .00002708  00000+0  10794-3 0  9998
2 61629  42.9976 331.9429 0000664 281.7617  78.3161 15.27565201 44190
STARLINK-32390          
1 61630U 24191K   25211.30856426  .00000942  00000+0  43764-4 0  9990
2 61630  43.0000 330.6051 0000382 315.1757  44.9064 15.27569283 44176
STARLINK-32348          
1 61631U 24191L   25211.36447620  .00001946  00000+0  80225-4 0  9997
2 61631  42.9969 333.6318 0000635 312.9038  47.1760 15.27571080 44194
STARLINK-32455          
1 61632U 24191M   25211.05296311 -.00000434  00000+0 -62609-5 0  9993
2 61632  43.0003 335.5923 0000103 272.9239  87.1601 15.27574172 44156
STARLINK-32396          
1 61633U 24191N   25211.04139901  .00003416  00000+0  13359-3 0  9991
2 61633  43.0023 335.5057 0000898 254.1916 105.8837 15.27581660 44151
STARLINK-32355          
1 61634U 24191P   25211.05554107 -.00002075  00000+0 -65901-4 0  9995
2 61634  43.0060 335.6151 0001311 284.4486  75.6220 15.27578100 44142
